SOYUZ-MS 28             
1 66664U 25275A   25349.89461712  .00006813  00000+0  12896-3 0  9996
2 66664  51.6305 126.8563 0003169 254.4589 105.6050 15.49611341  1280
1998-067XS              
1 66906U 98067XS  25349.69380656  .00020263  00000+0  35287-3 0  9993
2 66906  51.6303 127.7667 0003289 216.5725 143.5040 15.50732342  2071
1998-067XT              
1 66907U 98067XT  25349.81796831  .00050230  00000+0  82637-3 0  9992
2 66907  51.6296 127.0953 0004121 244.2963 115.7601 15.51845045  2094
1998-067XU              
1 66908U 98067XU  25349.75307051  .00049466  00000+0  81150-3 0  9996
2 66908  51.6291 127.4116 0004237 243.4196 116.6360 15.51929885  2088
SILVERSAT               
1 66909U 98067XV  25349.62370561  .00048941  00000+0  79995-3 0  9990
2 66909  51.6296 128.0480 0004116 244.8670 115.1892 15.52037636  2060
1998-067XW              
1 66910U 98067XW  25349.68641401  .00044307  00000+0  72313-3 0  9991
2 66910  51.6293 127.7170 0004767 223.5527 136.5086 15.52120253  2079
1998-067XX              
1 66911U 98067XX  25349.55639860  .00053353  00000+0  85851-3 0  9996
2 66911  51.6293 128.3487 0004472 225.8375 134.2248 15.52435494  2045
1998-067XY              
1 66912U 98067XY  25349.62640120  .00035151  00000+0  59034-3 0  9996
2 66912  51.6298 128.0660 0004277 239.2298 120.8270 15.51430232  2058
